CCSDS_OMM_VERS = 2.0
CREATION_DATE  = 
ORIGINATOR     = 

OBJECT_NAME    = DELTA 2 R/B(1)
OBJECT_ID      = 1990-008B
CENTER_NAME    = EARTH
REF_FRAME      = TEME
TIME_SYSTEM    = UTC
MEAN_ELEMENT_THEORY = SGP/SGP4

EPOCH          = 2026-01-16T17:32:24.448992
MEAN_MOTION    = 15.48739141
ECCENTRICITY   = .01018693
INCLINATION    = 35.6041
RA_OF_ASC_NODE = 153.9922
ARG_OF_PERICENTER = 138.0307
MEAN_ANOMALY   = 222.8287

EPHEMERIS_TYPE = 0
CLASSIFICATION_TYPE = U
NORAD_CAT_ID   = 20453
ELEMENT_SET_NO = 999
REV_AT_EPOCH   = 91805
BSTAR          = .68354757E-3
MEAN_MOTION_DOT = .46942E-3
MEAN_MOTION_DDOT = 0

CCSDS_OMM_VERS = 2.0
CREATION_DATE  = 
ORIGINATOR     = 

OBJECT_NAME    = COSMOS 2058
OBJECT_ID      = 1990-010A
CENTER_NAME    = EARTH
REF_FRAME      = TEME
TIME_SYSTEM    = UTC
MEAN_ELEMENT_THEORY = SGP/SGP4

EPOCH          = 2026-01-16T22:19:50.336544
MEAN_MOTION    = 15.10820306
ECCENTRICITY   = .00105952
INCLINATION    = 82.4685
RA_OF_ASC_NODE = 98.4133
ARG_OF_PERICENTER = 146.7338
MEAN_ANOMALY   = 213.4560

EPHEMERIS_TYPE = 0
CLASSIFICATION_TYPE = U
NORAD_CAT_ID   = 20465
ELEMENT_SET_NO = 999
REV_AT_EPOCH   = 93442
BSTAR          = .17388535E-3
MEAN_MOTION_DOT = .2921E-4
MEAN_MOTION_DDOT = 0

CCSDS_OMM_VERS = 2.0
CREATION_DATE  = 
ORIGINATOR     = 

OBJECT_NAME    = SL-14 R/B
OBJECT_ID      = 1990-010B
CENTER_NAME    = EARTH
REF_FRAME      = TEME
TIME_SYSTEM    = UTC
MEAN_ELEMENT_THEORY = SGP/SGP4

EPOCH          = 2026-01-16T13:11:44.488608
MEAN_MOTION    = 14.83510073
ECCENTRICITY   = .00213093
INCLINATION    = 82.5043
RA_OF_ASC_NODE = 316.3565
ARG_OF_PERICENTER = 109.9924
MEAN_ANOMALY   = 250.3589

EPHEMERIS_TYPE = 0
CLASSIFICATION_TYPE = U
NORAD_CAT_ID   = 20466
ELEMENT_SET_NO = 999
REV_AT_EPOCH   = 92075
BSTAR          = .37280946E-4
MEAN_MOTION_DOT = .332E-5
MEAN_MOTION_DDOT = 0

CCSDS_OMM_VERS = 2.0
CREATION_DATE  = 
ORIGINATOR     = 

OBJECT_NAME    = SL-14 R/B
OBJECT_ID      = 1990-018B
CENTER_NAME    = EARTH
REF_FRAME      = TEME
TIME_SYSTEM    = UTC
MEAN_ELEMENT_THEORY = SGP/SGP4

EPOCH          = 2026-01-16T23:45:31.064832
MEAN_MOTION    = 14.82087171
ECCENTRICITY   = .00148909
INCLINATION    = 82.5211
RA_OF_ASC_NODE = 271.4213
ARG_OF_PERICENTER = 261.8766
MEAN_ANOMALY   = 98.0759

EPHEMERIS_TYPE = 0
CLASSIFICATION_TYPE = U
NORAD_CAT_ID   = 20511
ELEMENT_SET_NO = 999
REV_AT_EPOCH   = 91492
BSTAR          = .40590926E-4
MEAN_MOTION_DOT = .346E-5
MEAN_MOTION_DDOT = 0

CCSDS_OMM_VERS = 2.0
CREATION_DATE  = 
ORIGINATOR     = 

OBJECT_NAME    = HST
OBJECT_ID      = 1990-037B
CENTER_NAME    = EARTH
REF_FRAME      = TEME
TIME_SYSTEM    = UTC
MEAN_ELEMENT_THEORY = SGP/SGP4

EPOCH          = 2026-01-16T11:12:02.884320
MEAN_MOTION    = 15.28553314
ECCENTRICITY   = .00017749
INCLINATION    = 28.4678
RA_OF_ASC_NODE = 36.0194
ARG_OF_PERICENTER = 244.4760
MEAN_ANOMALY   = 115.5651

EPHEMERIS_TYPE = 0
CLASSIFICATION_TYPE = U
NORAD_CAT_ID   = 20580
ELEMENT_SET_NO = 999
REV_AT_EPOCH   = 76531
BSTAR          = .19063115E-3
MEAN_MOTION_DOT = .5675E-4
MEAN_MOTION_DDOT = 0

CCSDS_OMM_VERS = 2.0
CREATION_DATE  = 
ORIGINATOR     = 

OBJECT_NAME    = SL-16 R/B
OBJECT_ID      = 1990-046B
CENTER_NAME    = EARTH
REF_FRAME      = TEME
TIME_SYSTEM    = UTC
MEAN_ELEMENT_THEORY = SGP/SGP4

EPOCH          = 2026-01-16T19:25:25.498560
MEAN_MOTION    = 14.15007866
ECCENTRICITY   = .00135293
INCLINATION    = 70.9996
RA_OF_ASC_NODE = 46.8705
ARG_OF_PERICENTER = 13.2823
MEAN_ANOMALY   = 346.8653

EPHEMERIS_TYPE = 0
CLASSIFICATION_TYPE = U
NORAD_CAT_ID   = 20625
ELEMENT_SET_NO = 999
REV_AT_EPOCH   = 84105
BSTAR          = .20733284E-4
MEAN_MOTION_DOT = -.7E-7
MEAN_MOTION_DDOT = 0

CCSDS_OMM_VERS = 2.0
CREATION_DATE  = 
ORIGINATOR     = 

OBJECT_NAME    = COSMOS 2084
OBJECT_ID      = 1990-055A
CENTER_NAME    = EARTH
REF_FRAME      = TEME
TIME_SYSTEM    = UTC
MEAN_ELEMENT_THEORY = SGP/SGP4

EPOCH          = 2026-01-16T18:42:44.974080
MEAN_MOTION    = 15.05261824
ECCENTRICITY   = .00257634
INCLINATION    = 62.7897
RA_OF_ASC_NODE = 152.5773
ARG_OF_PERICENTER = 179.9494
MEAN_ANOMALY   = 180.1614

EPHEMERIS_TYPE = 0
CLASSIFICATION_TYPE = U
NORAD_CAT_ID   = 20663
ELEMENT_SET_NO = 999
REV_AT_EPOCH   = 92850
BSTAR          = .17376312E-3
MEAN_MOTION_DOT = .2308E-4
MEAN_MOTION_DDOT = 0

CCSDS_OMM_VERS = 2.0
CREATION_DATE  = 
ORIGINATOR     = 

OBJECT_NAME    = SL-6 R/B(2)
OBJECT_ID      = 1990-055D
CENTER_NAME    = EARTH
REF_FRAME      = TEME
TIME_SYSTEM    = UTC
MEAN_ELEMENT_THEORY = SGP/SGP4

EPOCH          = 2026-01-16T13:25:28.164000
MEAN_MOTION    = 15.03268661
ECCENTRICITY   = .0017178
INCLINATION    = 62.7823
RA_OF_ASC_NODE = 71.0868
ARG_OF_PERICENTER = 329.5115
MEAN_ANOMALY   = 30.4983

EPHEMERIS_TYPE = 0
CLASSIFICATION_TYPE = U
NORAD_CAT_ID   = 20666
ELEMENT_SET_NO = 999
REV_AT_EPOCH   = 93035
BSTAR          = .11038633E-3
MEAN_MOTION_DOT = .1307E-4
MEAN_MOTION_DDOT = 0

CCSDS_OMM_VERS = 2.0
CREATION_DATE  = 
ORIGINATOR     = 

OBJECT_NAME    = SL-8 R/B
OBJECT_ID      = 1990-078B
CENTER_NAME    = EARTH
REF_FRAME      = TEME
TIME_SYSTEM    = UTC
MEAN_ELEMENT_THEORY = SGP/SGP4

EPOCH          = 2026-01-16T17:36:21.886560
MEAN_MOTION    = 14.87124180
ECCENTRICITY   = .0368844
INCLINATION    = 82.9065
RA_OF_ASC_NODE = 297.9620
ARG_OF_PERICENTER = 188.1013
MEAN_ANOMALY   = 171.4153

EPHEMERIS_TYPE = 0
CLASSIFICATION_TYPE = U
NORAD_CAT_ID   = 20775
ELEMENT_SET_NO = 999
REV_AT_EPOCH   = 80157
BSTAR          = .4062761E-3
MEAN_MOTION_DOT = .13441E-3
MEAN_MOTION_DDOT = 0

CCSDS_OMM_VERS = 2.0
CREATION_DATE  = 
ORIGINATOR     = 

OBJECT_NAME    = SL-8 R/B
OBJECT_ID      = 1991-006B
CENTER_NAME    = EARTH
REF_FRAME      = TEME
TIME_SYSTEM    = UTC
MEAN_ELEMENT_THEORY = SGP/SGP4

EPOCH          = 2026-01-17T00:00:41.465088
MEAN_MOTION    = 13.77492003
ECCENTRICITY   = .00224834
INCLINATION    = 82.9407
RA_OF_ASC_NODE = 208.4830
ARG_OF_PERICENTER = 177.0685
MEAN_ANOMALY   = 347.4021

EPHEMERIS_TYPE = 0
CLASSIFICATION_TYPE = U
NORAD_CAT_ID   = 21088
ELEMENT_SET_NO = 999
REV_AT_EPOCH   = 75695
BSTAR          = -.39367361E-4
MEAN_MOTION_DOT = -.24E-6
MEAN_MOTION_DDOT = 0

CCSDS_OMM_VERS = 2.0
CREATION_DATE  = 
ORIGINATOR     = 

OBJECT_NAME    = OKEAN-3
OBJECT_ID      = 1991-039A
CENTER_NAME    = EARTH
REF_FRAME      = TEME
TIME_SYSTEM    = UTC
MEAN_ELEMENT_THEORY = SGP/SGP4

EPOCH          = 2026-01-16T22:30:51.691392
MEAN_MOTION    = 15.04356333
ECCENTRICITY   = .00156221
INCLINATION    = 82.5150
RA_OF_ASC_NODE = 26.9659
ARG_OF_PERICENTER = 141.0635
MEAN_ANOMALY   = 219.1720

EPHEMERIS_TYPE = 0
CLASSIFICATION_TYPE = U
NORAD_CAT_ID   = 21397
ELEMENT_SET_NO = 999
REV_AT_EPOCH   = 85725
BSTAR          = .13954437E-3
MEAN_MOTION_DOT = .1979E-4
MEAN_MOTION_DDOT = 0

CCSDS_OMM_VERS = 2.0
CREATION_DATE  = 
ORIGINATOR     = 

OBJECT_NAME    = COSMOS 2151
OBJECT_ID      = 1991-042A
CENTER_NAME    = EARTH
REF_FRAME      = TEME
TIME_SYSTEM    = UTC
MEAN_ELEMENT_THEORY = SGP/SGP4

EPOCH          = 2026-01-16T22:01:02.591904
MEAN_MOTION    = 14.99855117
ECCENTRICITY   = .00115148
INCLINATION    = 82.4984
RA_OF_ASC_NODE = 133.6021
ARG_OF_PERICENTER = 230.3341
MEAN_ANOMALY   = 129.6868

EPHEMERIS_TYPE = 0
CLASSIFICATION_TYPE = U
NORAD_CAT_ID   = 21422
ELEMENT_SET_NO = 999
REV_AT_EPOCH   = 85543
BSTAR          = .14032891E-3
MEAN_MOTION_DOT = .1766E-4
MEAN_MOTION_DDOT = 0

