DELTA 2 R/B(1)          
1 20453U 90008B   26016.73083853  .00046942  00000+0  68355-3 0  9997
2 20453  35.6041 153.9922 0101869 138.0307 222.8287 15.48739141918050
COSMOS 2058             
1 20465U 90010A   26016.93044371  .00002921  00000+0  17389-3 0  9997
2 20465  82.4685  98.4133 0010595 146.7338 213.4560 15.10820306934421
SL-14 R/B               
1 20466U 90010B   26016.54982047  .00000332  00000+0  37281-4 0  9994
2 20466  82.5043 316.3565 0021309 109.9924 250.3589 14.83510073920757
SL-14 R/B               
1 20511U 90018B   26016.98994288  .00000346  00000+0  40591-4 0  9994
2 20511  82.5211 271.4213 0014890 261.8766  98.0759 14.82087171914920
HST                     
1 20580U 90037B   26016.46670005  .00005675  00000+0  19063-3 0  9991
2 20580  28.4678  36.0194 0001774 244.4760 115.5651 15.28553314765314
SL-16 R/B               
1 20625U 90046B   26016.80932290 -.00000007  00000+0  20733-4 0  9998
2 20625  70.9996  46.8705 0013529  13.2823 346.8653 14.15007866841057
COSMOS 2084             
1 20663U 90055A   26016.77968720  .00002308  00000+0  17376-3 0  9996
2 20663  62.7897 152.5773 0025763 179.9494 180.1614 15.05261824928503
SL-6 R/B(2)             
1 20666U 90055D   26016.55935375  .00001307  00000+0  11039-3 0  9993
2 20666  62.7823  71.0868 0017178 329.5115  30.4983 15.03268661930355
SL-8 R/B                
1 20775U 90078B   26016.73358665  .00013441  00000+0  40628-3 0  9998
2 20775  82.9065 297.9620 0368844 188.1013 171.4153 14.87124180801572
SL-8 R/B                
1 21088U 91006B   26017.00047992 -.00000024  00000+0 -39367-4 0  9991
2 21088  82.9407 208.4830 0022483 177.0685 347.4021 13.77492003756958
OKEAN-3                 
1 21397U 91039A   26016.93809828  .00001979  00000+0  13954-3 0  9996
2 21397  82.5150  26.9659 0015622 141.0635 219.1720 15.04356333857250
COSMOS 2151             
1 21422U 91042A   26016.91739111  .00001766  00000+0  14033-3 0  9997
2 21422  82.4984 133.6021 0011514 230.3341 129.6868 14.99855117855437
